NORAD_CAT_ID,OBJECT_NAME,OBJECT_TYPE,EPOCH,MEAN_MOTION,ECCENTRICITY,INCLINATION,RA_OF_ASC_NODE,ARG_OF_PERICENTER,MEAN_ANOMALY,BSTAR,MEAN_MOTION_DOT,MEAN_MOTION_DDOT,TLE_LINE0,TLE_LINE1,TLE_LINE2,SEMIMAJOR_AXIS,PERIOD,APOGEE,PERIGEE,DECAYED
51807.0,STARLINK-3606,PAYLOAD,2023-03-28 10:38:13,15.08863666,0.0001013,53.2135,135.0687,104.7628,255.3477,0.0020778,0.00032957,0.0,0 STARLINK-3606,1 51807U 22017AR  23087.44321246  .00032957  00000-0  20778-2 0  9991,2 51807  53.2135 135.0687 0001013 104.7628 255.3477 15.08863666 61486,6917.808,95.436,540.374,538.972,0.0
51807.0,STARLINK-3606,PAYLOAD,2023-03-28 12:13:36,15.08867374,9.9e-05,53.2134,134.7707,106.4155,253.6946,0.0020369,0.00032302,0.0,0 STARLINK-3606,1 51807U 22017AR  23087.50945123  .00032302  00000-0  20369-2 0  9994,2 51807  53.2134 134.7707 0000990 106.4155 253.6946 15.08867374 61494,6917.797,95.436,540.347,538.977,0.0
51807.0,STARLINK-3606,PAYLOAD,2023-03-28 20:10:32,15.08862429,0.000144,53.2136,133.2837,89.8028,270.3129,0.0013704,0.00021603,0.0,0 STARLINK-3606,1 51807U 22017AR  23087.84064995  .00021603  00000-0  13704-2 0  9997,2 51807  53.2136 133.2837 0001440  89.8028 270.3129 15.08862429 61549,6917.812,95.436,540.673,538.681,0.0
51807.0,STARLINK-3606,PAYLOAD,2023-03-29 10:28:59,15.08859531,0.0001205,53.2138,130.6076,82.6903,277.4226,0.00043213,6.6e-05,0.0,0 STARLINK-3606,1 51807U 22017AR  23088.43680319  .00006600  00000-0  43213-3 0  9996,2 51807  53.2138 130.6076 0001205  82.6903 277.4226 15.08859531 61635,6917.821,95.436,540.519,538.852,0.0
51807.0,STARLINK-3606,PAYLOAD,2023-03-29 20:01:18,15.08852297,0.0001352,53.2146,128.8243,84.2321,275.8825,0.00020952,3.049e-05,0.0,0 STARLINK-3606,1 51807U 22017AR  23088.83424328  .00003049  00000-0  20952-3 0  9995,2 51807  53.2146 128.8243 0001352  84.2321 275.8825 15.08852297 61699,6917.843,95.437,540.643,538.773,0.0
51807.0,STARLINK-3606,PAYLOAD,2023-03-30 02:22:51,15.08851153,0.0001411,53.2147,127.6366,89.2057,270.9097,0.00010589,1.398e-05,0.0,0 STARLINK-3606,1 51807U 22017AR  23089.09920320  .00001398  00000-0  10589-3 0  9997,2 51807  53.2147 127.6366 0001411  89.2057 270.9097 15.08851153 61732,6917.846,95.437,540.687,538.735,0.0
51807.0,STARLINK-3606,PAYLOAD,2023-03-30 19:52:05,15.08847718,0.0001312,53.2141,124.3628,93.1071,267.0071,1.8319e-06,-2.59e-06,0.0,0 STARLINK-3606,1 51807U 22017AR  23089.82784215 -.00000259  00000-0  18319-5 0  9996,2 51807  53.2141 124.3628 0001312  93.1071 267.0071 15.08847718 61844,6917.857,95.437,540.629,538.814,0.0
51807.0,STARLINK-3606,PAYLOAD,2023-04-01 02:04:26,15.08826917,0.0001114,53.2149,118.713,90.6794,269.4326,0.00035268,5.328e-05,0.0,0 STARLINK-3606,1 51807U 22017AR  23091.08641263  .00005328  00000-0  35268-3 0  9993,2 51807  53.2149 118.7130 0001114  90.6794 269.4326 15.08826917 62030,6917.92,95.438,540.556,539.015,0.0
51807.0,STARLINK-3606,PAYLOAD,2023-04-01 08:25:58,15.08834427,0.0001525,53.2157,117.523,87.1356,272.981,1.4963e-05,-5e-07,0.0,0 STARLINK-3606,1 51807U 22017AR  23091.35137136 -.00000050  00000-0  14963-4 0  9990,2 51807  53.2157 117.5230 0001525  87.1356 272.9810 15.08834427 62074,6917.897,95.438,540.817,538.707,0.0
51807.0,STARLINK-3606,PAYLOAD,2023-04-02 09:52:07,15.08844825,0.0001544,53.2163,112.7657,86.5709,273.546,0.00011662,1.569e-05,0.0,0 STARLINK-3606,1 51807U 22017AR  23092.41120369  .00001569  00000-0  11662-3 0  9995,2 51807  53.2163 112.7657 0001544  86.5709 273.5460 15.08844825 62236,6917.866,95.437,540.799,538.663,0.0
51807.0,STARLINK-3606,PAYLOAD,2023-04-02 17:49:03,15.08844125,0.0001461,53.2161,111.2775,86.6685,273.4475,3.1465e-05,2.13e-06,0.0,0 STARLINK-3606,1 51807U 22017AR  23092.74240545  .00000213  00000-0  31465-4 0  9999,2 51807  53.2161 111.2775 0001461  86.6685 273.4475 15.08844125 62284,6917.868,95.437,540.743,538.722,0.0
51807.0,STARLINK-3606,PAYLOAD,2023-04-03 01:45:59,15.08836798,0.0001449,53.2169,109.7909,89.8344,270.2814,8.6843e-05,1.094e-05,0.0,0 STARLINK-3606,1 51807U 22017AR  23093.07360961  .00001094  00000-0  86843-4 0  9999,2 51807  53.2169 109.7909 0001449  89.8344 270.2814 15.08836798 62331,6917.89,95.438,540.758,538.753,0.0
51807.0,STARLINK-3606,PAYLOAD,2023-04-03 06:32:09,15.08837167,0.0001485,53.2164,108.8988,89.0232,271.093,0.00011651,1.567e-05,0.0,0 STARLINK-3606,1 51807U 22017AR  23093.27232884  .00001567  00000-0  11651-3 0  9992,2 51807  53.2164 108.8988 0001485  89.0232 271.0930 15.08837167 62363,6917.889,95.438,540.781,538.727,0.0
51807.0,STARLINK-3606,PAYLOAD,2023-04-03 17:39:51,15.08837676,0.0001422,53.2164,106.8172,94.3346,265.7809,4.707e-05,4.61e-06,0.0,0 STARLINK-3606,1 51807U 22017AR  23093.73601030  .00000461  00000-0  47070-4 0  9993,2 51807  53.2164 106.8172 0001422  94.3346 265.7809 15.08837676 62430,6917.887,95.438,540.736,538.769,0.0
51807.0,STARLINK-3606,PAYLOAD,2023-04-04 09:33:42,15.08841605,0.0001469,53.217,103.8437,96.3074,263.8085,-1.6682e-05,-5.53e-06,0.0,0 STARLINK-3606,1 51807U 22017AR  23094.39841099 -.00000553  00000-0 -16682-4 0  9996,2 51807  53.2170 103.8437 0001469  96.3074 263.8085 15.08841605 62532,6917.875,95.437,540.757,538.724,0.0
51807.0,STARLINK-3606,PAYLOAD,2023-04-05 09:24:29,15.08838001,0.0001516,53.2168,99.383,97.6004,262.516,6.8421e-05,8.01e-06,0.0,0 STARLINK-3606,1 51807U 22017AR  23095.39201212  .00000801  00000-0  68421-4 0  9996,2 51807  53.2168  99.3830 0001516  97.6004 262.5160 15.08838001 62687,6917.886,95.438,540.8,538.703,0.0
51807.0,STARLINK-3606,PAYLOAD,2023-04-05 17:21:25,15.08838378,0.0001633,53.2166,97.8957,94.0516,266.0663,6.6209e-05,7.66e-06,0.0,0 STARLINK-3606,1 51807U 22017AR  23095.72321246  .00000766  00000-0  66209-4 0  9995,2 51807  53.2166  97.8957 0001633  94.0516 266.0663 15.08838378 62737,6917.885,95.438,540.88,538.621,0.0
51807.0,STARLINK-3606,PAYLOAD,2023-04-06 09:15:16,15.08843403,0.0001417,53.2154,94.9205,100.4175,259.6976,8.6537e-05,1.09e-05,0.0,0 STARLINK-3606,1 51807U 22017AR  23096.38560796  .00001090  00000-0  86537-4 0  9990,2 51807  53.2154  94.9205 0001417 100.4175 259.6976 15.08843403 62832,6917.87,95.437,540.715,538.755,0.0
51807.0,STARLINK-3606,PAYLOAD,2023-04-06 17:12:12,15.0883621,0.0001537,53.2171,93.4333,94.4711,265.6457,4.6921e-05,4.59e-06,0.0,0 STARLINK-3606,1 51807U 22017AR  23096.71681461  .00000459  00000-0  46921-4 0  9991,2 51807  53.2171  93.4333 0001537  94.4711 265.6457 15.08836210 62882,6917.892,95.438,540.82,538.694,0.0
51807.0,STARLINK-3606,PAYLOAD,2023-04-07 09:06:04,15.08839409,0.0001455,53.2163,90.4593,98.8056,261.3101,3.5556e-05,2.78e-06,0.0,0 STARLINK-3606,1 51807U 22017AR  23097.37921372  .00000278  00000-0  35556-4 0  9993,2 51807  53.2163  90.4593 0001455  98.8056 261.3101 15.08839409 62980,6917.882,95.438,540.754,538.741,0.0
51807.0,STARLINK-3606,PAYLOAD,2023-04-08 08:56:51,15.0884291,0.0001316,53.2156,85.9999,94.6096,265.5046,7.5683e-07,-2.76e-06,0.0,0 STARLINK-3606,1 51807U 22017AR  23098.37281313 -.00000276  00000-0  75683-6 0  9994,2 51807  53.2156  85.9999 0001316  94.6096 265.5046 15.08842910 63138,6917.871,95.437,540.647,538.826,0.0
51807.0,STARLINK-3606,PAYLOAD,2023-04-09 08:47:37,15.08843109,0.0001342,53.2163,81.5388,92.5259,267.5887,8.4577e-05,1.058e-05,0.0,0 STARLINK-3606,1 51807U 22017AR  23099.36641088  .00001058  00000-0  84577-4 0  9991,2 51807  53.2163  81.5388 0001342  92.5259 267.5887 15.08843109 63289,6917.871,95.437,540.664,538.808,0.0
51807.0,STARLINK-3606,PAYLOAD,2023-04-10 07:03:02,15.08841243,0.0001298,53.2164,77.3754,93.6134,266.5007,5.6295e-05,6.08e-06,0.0,0 STARLINK-3606,1 51807U 22017AR  23100.29377489  .00000608  00000-0  56295-4 0  9993,2 51807  53.2164  77.3754 0001298  93.6134 266.5007 15.08841243 63420,6917.877,95.437,540.64,538.844,0.0
51807.0,STARLINK-3606,PAYLOAD,2023-04-11 08:29:12,15.0884481,0.0001216,53.2169,72.6191,95.4642,264.6489,2.7313e-05,1.47e-06,0.0,0 STARLINK-3606,1 51807U 22017AR  23101.35361441  .00000147  00000-0  27313-4 0  9999,2 51807  53.2169  72.6191 0001216  95.4642 264.6489 15.08844810 63585,6917.866,95.437,540.572,538.889,0.0
51807.0,STARLINK-3606,PAYLOAD,2023-04-12 03:33:50,15.08835271,0.0001196,53.2171,69.0511,98.6036,261.5092,-1.7629e-05,-5.68e-06,0.0,0 STARLINK-3606,1 51807U 22017AR  23102.14850430 -.00000568  00000-0 -17629-4 0  9996,2 51807  53.2171  69.0511 0001196  98.6036 261.5092 15.08835271 63704,6917.895,95.438,540.587,538.932,0.0
51807.0,STARLINK-3606,PAYLOAD,2023-04-12 06:44:36,15.08837966,0.0001285,53.2179,68.4558,93.3944,266.7195,2.0056e-05,3.1e-07,0.0,0 STARLINK-3606,1 51807U 22017AR  23102.28098171  .00000031  00000-0  20056-4 0  9998,2 51807  53.2179  68.4558 0001285  93.3944 266.7195 15.08837966 63721,6917.887,95.438,540.641,538.863,0.0
51807.0,STARLINK-3606,PAYLOAD,2023-04-13 06:35:23,15.08844337,0.0001311,53.2177,63.9951,100.091,260.023,3.4636e-05,2.63e-06,0.0,0 STARLINK-3606,1 51807U 22017AR  23103.27457899  .00000263  00000-0  34636-4 0  9990,2 51807  53.2177  63.9951 0001311 100.0910 260.0230 15.08844337 63878,6917.867,95.437,540.639,538.825,0.0
51807.0,STARLINK-3606,PAYLOAD,2023-04-13 14:32:19,15.08841858,0.0001155,53.2182,62.5067,76.2311,283.881,-3.9986e-06,-3.51e-06,0.0,0 STARLINK-3606,1 51807U 22017AR  23103.60578187 -.00000351  00000-0 -39986-5 0  9995,2 51807  53.2182  62.5067 0001155  76.2311 283.8810 15.08841858 63920,6917.875,95.437,540.539,538.941,0.0
51807.0,STARLINK-3606,PAYLOAD,2023-04-14 06:26:10,15.08844839,9.89e-05,53.2171,59.5335,87.7049,272.4056,7.216e-05,8.61e-06,0.0,0 STARLINK-3606,1 51807U 22017AR  23104.26817790  .00000861  00000-0  72160-4 0  9998,2 51807  53.2171  59.5335 0000989  87.7049 272.4056 15.08844839 64021,6917.866,95.437,540.415,539.046,0.0
51807.0,STARLINK-3606,PAYLOAD,2023-04-15 03:06:11,15.08842303,9.77e-05,53.217,55.6706,70.9373,289.1725,3.3188e-05,2.41e-06,0.0,0 STARLINK-3606,1 51807U 22017AR  23105.12930086  .00000241  00000-0  33188-4 0  9997,2 51807  53.2170  55.6706 0000977  70.9373 289.1725 15.08842303 64156,6917.873,95.437,540.414,539.062,0.0
